DELTA 2 R/B             
1 25876U 99041E   26063.13230769  .00001895  00000+0  34235-3 0  9991
2 25876  51.7645 323.4770 0502347 332.0291  25.4449 14.11818994362246
HELIOS 1B               
1 25977U 99064A   26063.13131923  .00003050  00000+0  34136-3 0  9995
2 25977  98.1702 325.2112 0002519  82.6134 277.5367 14.87671331684439
TERRA                   
1 25994U 99068A   26063.16861737  .00000655  00000+0  14267-3 0  9995
2 25994  97.9604 116.8140 0002341 164.7813 260.5333 14.61008222394270
SL-16 R/B               
1 26070U 00006B   26063.14841213  .00000205  00000+0  12843-3 0  9999
2 26070  71.0013 109.4896 0017172 197.8700 162.1821 14.15824790347776
TITAN 4B R/B            
1 26474U 00047B   26063.13076288  .00005936  00000+0  37138-3 0  9993
2 26474  67.9885  56.1406 0038033  41.9680 318.4372 15.09497271392079
ENVISAT                 
1 27386U 02009A   26062.83543984  .00000174  00000+0  70207-4 0  9998
2 27386  98.3719  16.5725 0001332  84.6244 308.1164 14.39034374258330
IDEFIX & ARIANE 42P R/B 
1 27422U 02021B   26062.83233679  .00000400  00000+0  16835-3 0  9998
2 27422  98.5864   1.5088 0011242 200.0167 160.0576 14.31021372243184
AQUA                    
1 27424U 02022A   26063.14105017  .00001519  00000+0  31298-3 0  9992
2 27424  98.4165  30.4053 0000642  59.4152   2.9589 14.61961369267922
CZ-4B R/B               
1 27432U 02024C   26063.12431707  .00000065  00000+0  56260-4 0  9991
2 27432  98.8850 116.5588 0050725  39.8521 347.0460 14.14546424228459
MIDORI II (ADEOS-II)    
1 27597U 02056A   26062.85329232  .00000421  00000+0  18321-3 0  9997
2 27597  98.7759  21.2910 0001796  51.1824 308.9517 14.29279827209461
H-2A R/B                
1 27601U 02056E   26062.83729634  .00000353  00000+0  13822-3 0  9996
2 27601  98.3192  23.4260 0070135 178.0645 202.1846 14.33756197213278
CZ-4B R/B               
1 28059U 03049C   26062.60701063  .00000550  00000+0  13780-3 0  9990
2 28059  98.6873  57.2734 0047056 249.8633 109.7497 14.55013265185713
CZ-2C R/B               
1 28222U 04012C   26063.17120258  .00071201  00000+0  75524-3 0  9992
2 28222  97.7244 127.9435 0013212 331.6844  28.3694 15.63762571203415
SL-16 R/B               
1 28353U 04021B   26062.87072481 -.00000140  00000+0 -47800-4 0  9990
2 28353  70.9992 244.7047 0003733  21.1238 339.0037 14.14599553122017
CZ-4B R/B               
1 28415U 04035C   26063.08471853  .00011746  00000+0  41410-3 0  9996
2 28415  97.3503  97.3943 0031572 351.8851   8.1874 15.28943125179053
CZ-2C R/B               
1 28480U 04046B   26062.73581577  .00000155  00000+0  72528-4 0  9993
2 28480  98.1987 338.0901 0139522 172.0058 188.3394 14.26989818107656
ARIANE 5 R/B            
1 28499U 04049H   26063.04108419  .00001148  00000+0  13261-3 0  9992
2 28499  98.2617 231.2869 0084353  10.2262 350.0643 14.85254001144958
